{"type":"FeatureCollection","crs":{"type":"name","properties":{"name":"EPSG:4326"}},"features":[{"type":"Feature","id":1,"geometry":{"type":"LineString","coordinates":[[-80.4655328206123,25.6764932504299],[-80.4665774489983,25.6764457958802],[-80.4665881003226,25.6764453441171],[-80.4732625460527,25.6761618559391],[-80.4734608275921,25.6761534294839]]},"properties":{"OBJECTID":1,"GlobalID":"97b365b2-1773-4b65-9479-e12cf1afca0b","EditBy":null,"EditDate":null,"ModifyBy":null,"ModifyDate":null}},{"type":"Feature","id":2,"geometry":{"type":"LineString","coordinates":[[-80.3877681278499,25.8454259840291],[-80.3879223874488,25.8505769683343]]},"properties":{"OBJECTID":2,"GlobalID":"5cdac636-a4d4-4e34-9c67-75a2da5d8a55","EditBy":null,"EditDate":null,"ModifyBy":null,"ModifyDate":null}},{"type":"Feature","id":3,"geometry":{"type":"LineString","coordinates":[[-80.4734608275921,25.6761534294839],[-80.4734615974483,25.6762335552687],[-80.4734701494098,25.6771250238557],[-80.4734776251896,25.6779055161875],[-80.4734873063334,25.6789165551104],[-80.4735059373924,25.680859652017],[-80.4735312204761,25.6834977327057],[-80.4735315923786,25.6834977197527],[-80.4740843392477,25.6834787322505],[-80.4742533644549,25.6883165518363],[-80.4742529512299,25.6883163745491],[-80.4735278733533,25.6880047938772],[-80.4728628316839,25.6876130465491],[-80.4728620762007,25.6876126013046],[-80.4728619863692,25.687612529256],[-80.4722117094097,25.6870860523691],[-80.4713261151684,25.6862648013217],[-80.4709782955752,25.6859509331713],[-80.4706730740928,25.6856755031881],[-80.4706236523791,25.6856309043362],[-80.4702237089399,25.6852699939225],[-80.4698452873383,25.6849799321177],[-80.4694188948021,25.6846565499237],[-80.4687655716556,25.6843089270713],[-80.468604976239,25.6842234765835],[-80.4679248698222,25.6840284432578],[-80.4671219116038,25.6837981750777],[-80.4670821521693,25.6837842587167],[-80.4669963567715,25.6837542304584],[-80.4668803645054,25.6837136333617],[-80.466879651243,25.6837130755735],[-80.4668788481492,25.6837131014794],[-80.4654154817715,25.6837604365581],[-80.4654153784653,25.6837604414155],[-80.4648515311143,25.6837791252872],[-80.462511775532,25.6838566618257],[-80.462034658725,25.6838711302989],[-80.4619936757852,25.6838723729748],[-80.4619924612629,25.6838723754035],[-80.4619922375824,25.6838723762131],[-80.4620094070824,25.6842944432697],[-80.4620661868965,25.6856894905685],[-80.4621510282836,25.6877370454599],[-80.4622921805642,25.6911557550021],[-80.4622963208993,25.6914551896487],[-80.4625579749887,25.6983962224139],[-80.4628317374699,25.7047634563671],[-80.4628553972979,25.7053137312292],[-80.4628688477726,25.7056265851439],[-80.4628854863683,25.7060135243999],[-80.4629478563985,25.7074687624999],[-80.46301704554,25.7092575597137],[-80.4630205220201,25.7093474373949],[-80.4630336131687,25.7096858872346],[-80.4630883861466,25.7111018176173],[-80.4631066318283,25.7115734682674],[-80.4631585760113,25.7129162397049],[-80.4631939301076,25.7138302834885],[-80.4632288134867,25.714732175938],[-80.4632635603219,25.7156325035616],[-80.4632978633893,25.7165213479467],[-80.4633335552522,25.717446837942],[-80.4633689389929,25.718364277652],[-80.4634039157968,25.7192691925315],[-80.463403956221,25.7192702713553],[-80.4634393579281,25.7201861641612],[-80.4634747353806,25.7211005818305],[-80.4635092603319,25.721996635082],[-80.4635602720636,25.7233196432948],[-80.4635781368597,25.7237805669316],[-80.4636495834675,25.725628654983],[-80.4637106024315,25.7272057787748],[-80.4637171250988,25.7273732870476],[-80.4637198416042,25.7274445751847],[-80.4637198451974,25.727444661776]]},"properties":{"OBJECTID":3,"GlobalID":"aa980bba-4c8f-4fd4-9e70-9bc70c51c3ae","EditBy":null,"EditDate":null,"ModifyBy":null,"ModifyDate":null}},{"type":"Feature","id":4,"geometry":{"type":"LineString","coordinates":[[-80.4489848873899,25.7610839322641],[-80.4410291170779,25.7610684756402],[-80.4409560058918,25.7610681949049],[-80.434934500626,25.7610649806064],[-80.4329272717175,25.7610637969873],[-80.4248884243097,25.7610656933668],[-80.4208722273543,25.7610664757042],[-80.4188792744723,25.7610641820883],[-80.4188857082064,25.7611888948631],[-80.4188846311264,25.7613017381696],[-80.4188853902028,25.7613219138577],[-80.4188877213309,25.7613987680044],[-80.4188936133809,25.7615931016979],[-80.4188937121956,25.7615963677601],[-80.4188937148905,25.7615965789174],[-80.4188937130939,25.761597175174],[-80.4188936600933,25.7616229654928],[-80.4188935217527,25.7616907963183],[-80.4189301433719,25.763413039239],[-80.4189461765031,25.7641763508322],[-80.418964596458,25.7650345073367],[-80.4189687862005,25.7652271191744],[-80.4189893917565,25.7661830455695],[-80.4189925726909,25.766341822374],[-80.4189929913058,25.7663615247498],[-80.4189983794009,25.766615136119],[-80.4190074308257,25.7670412838374],[-80.4190196506085,25.767615342791],[-80.4190324668727,25.7682174271304],[-80.4190460799425,25.7688557184786],[-80.4190481703221,25.7689525989492],[-80.4190502589052,25.7690494348468],[-80.4190737678162,25.770150068075],[-80.4190855303565,25.7706990258368],[-80.4190970943691,25.7712493457853],[-80.4191054549895,25.7716369718234],[-80.4191077762362,25.7717470417809],[-80.4191138183048,25.7720277062411],[-80.4191221690437,25.7724179151673],[-80.4191244274083,25.772484230309],[-80.4191234904655,25.7725092715945],[-80.4189357785037,25.7773436081527],[-80.4191270720485,25.7776136552067],[-80.4192668723646,25.7777995155929],[-80.4193777657932,25.7780113185674],[-80.4194728120418,25.778194105248],[-80.4195326820605,25.7783767525131],[-80.4195891860919,25.7785941286982],[-80.4196073760781,25.7787073259401],[-80.4196264329385,25.7788259064004],[-80.419633890752,25.7789828874888],[-80.4196351654614,25.779009726426],[-80.4198150189611,25.7790115756018],[-80.4203067154251,25.7790166337364],[-80.4212903014909,25.7790269093609],[-80.4215385706826,25.7790294501572],[-80.4215389928908,25.7790294542017],[-80.4217850369556,25.7790319715394],[-80.4222864235465,25.779037059603],[-80.423289192237,25.7790474007477],[-80.4242917668913,25.7790575558415],[-80.4249084899782,25.7790638499931],[-80.4249115181991,25.7790638807318],[-80.4249115173007,25.77906397133],[-80.4248883030372,25.7808790989901],[-80.4248651345877,25.7826910717145]]},"properties":{"OBJECTID":4,"GlobalID":"283a391b-190f-4253-a032-17ecdf5c068f","EditBy":null,"EditDate":null,"ModifyBy":null,"ModifyDate":null}},{"type":"Feature","id":5,"geometry":{"type":"LineString","coordinates":[[-80.4209988161475,25.532720103881],[-80.4210047576048,25.5327200576776],[-80.4210650004244,25.5327195867276],[-80.4235424722313,25.532700167537],[-80.4239570456333,25.5326969146582],[-80.4246478985958,25.5326914902211],[-80.4249236858796,25.5326893243369],[-80.424993159787,25.532688778813],[-80.4249930178532,25.5326679662209],[-80.4249696329097,25.5292285522847],[-80.424968590864,25.5290752766074],[-80.424777388049,25.5290755465405],[-80.4246947816704,25.5290756632683],[-80.4246651471475,25.52907570542],[-80.424421565365,25.529076048308],[-80.424415658942,25.5290760564141]]},"properties":{"OBJECTID":5,"GlobalID":"d58af063-1e65-44b4-a679-51356b7f59ea","EditBy":null,"EditDate":null,"ModifyBy":null,"ModifyDate":null}},{"type":"Feature","id":6,"geometry":{"type":"LineString","coordinates":[[-80.3478048629419,25.5518459567843],[-80.3479064076033,25.5518455507459],[-80.3505314771029,25.5518314682637],[-80.3512810412575,25.5518273535787],[-80.3513226260686,25.551827126651],[-80.3521025514831,25.5518229203843],[-80.353209135776,25.5518169440813],[-80.3558662850128,25.5518025503806],[-80.3565196027695,25.5517990046349],[-80.3578900572955,25.5517915581631],[-80.3578978618587,25.5517915160194],[-80.3599351367185,25.5517803414482],[-80.3619279728196,25.5517693824574],[-80.3623349860001,25.5517671520814],[-80.362335054272,25.5517578318323],[-80.3623412140199,25.5509116255707],[-80.3623338217835,25.5500620255783],[-80.362246993323,25.5486825922941],[-80.3622952256673,25.5480114268967],[-80.3623188594441,25.5468578228799],[-80.3623202760873,25.5459057969373],[-80.3623203982581,25.5458234156599],[-80.3623352492064,25.5456396500043],[-80.36241370986,25.5446687377412],[-80.3624409979834,25.5444476757029],[-80.3624708220508,25.5442092343562],[-80.3624712460556,25.5442058431928],[-80.3625012443962,25.5439894772007],[-80.3625216684925,25.5438517894742],[-80.3625710749348,25.5435445977127],[-80.3626379850505,25.543173535827],[-80.3626955913147,25.5428843009424],[-80.3627483565578,25.5426390846076],[-80.3627595199219,25.5425952485372],[-80.362798913742,25.5424405658595],[-80.3628599776218,25.5422194259553],[-80.3629407792849,25.541951332068],[-80.3630162512436,25.5417218939242],[-80.3630206179541,25.541708620777],[-80.3630671300246,25.5415757084779],[-80.3631040894103,25.5414737427289],[-80.3631504703268,25.5413497945966],[-80.3631603212522,25.5413247614725],[-80.3632260231337,25.541157797655],[-80.363266970141,25.5410594675828],[-80.363317424019,25.5409383064337],[-80.3633593780377,25.5408402695934],[-80.3634181646882,25.5407230903621],[-80.3635527538773,25.5404607787126],[-80.3636628576867,25.5402378536024],[-80.3639517415091,25.5396649081902],[-80.364047119236,25.5394827833533],[-80.3641103453607,25.539362052629],[-80.3642799652526,25.5390509668663],[-80.3644050978768,25.5388288658899],[-80.3644990850117,25.5386662009698],[-80.3645013703258,25.538662331428],[-80.3646050017736,25.5384869253071],[-80.3647093824163,25.5383139286869],[-80.3648282304267,25.5381235179912],[-80.3649401137987,25.5379442674548],[-80.3650702401575,25.5377428197072],[-80.3651196600746,25.537667640247],[-80.36524538918,25.5374792022217],[-80.3654620960642,25.5368561682248],[-80.3660361231241,25.5361961466886],[-80.3665305396868,25.5356368497211],[-80.3671623517756,25.5349537177978],[-80.3677691493769,25.5343203536909],[-80.368427642328,25.5336330624834],[-80.3691552929795,25.5330809061457],[-80.370156526449,25.5324050071257],[-80.3707422001665,25.53205579345],[-80.3712311828201,25.5317652348029],[-80.3717439771169,25.5315009119318],[-80.3720282211407,25.5313638632047],[-80.3721929524009,25.531325025192],[-80.3726181546693,25.5312545528876],[-80.3731099894739,25.5311745463166],[-80.3736073399343,25.531128074861],[-80.3742570401753,25.5310566175662],[-80.3750722118883,25.5309670247432],[-80.3760563594012,25.530864912983],[-80.3771293943131,25.5307842147117],[-80.377348556293,25.5307673737213],[-80.3777408712388,25.530737225943],[-80.3779995474131,25.5307168320919],[-80.3784481759475,25.5306814599909],[-80.3788023268668,25.5306535364751],[-80.3789492175854,25.5306419546342],[-80.3793599120619,25.5306095711912],[-80.3800308197302,25.5303953952286],[-80.3807648807595,25.5302684064277],[-80.3814012239506,25.5301583185552],[-80.3837161456069,25.5297578154126],[-80.3843986631019,25.5296379779136],[-80.3844093449689,25.5296361021713],[-80.3849465393054,25.5295312145714],[-80.3849473334162,25.5295310597455],[-80.385115662429,25.5294981928809],[-80.3853500364799,25.5294479798234],[-80.385351227646,25.5294477236715],[-80.3861356913493,25.5292796522397],[-80.3881085902409,25.5288562131621],[-80.3881618369811,25.5288463861212],[-80.3881607751724,25.5279841357336],[-80.3881529346766,25.5273165257853],[-80.3881510419263,25.5269844663127],[-80.388144322528,25.5259215982628],[-80.3881469393204,25.5254057139487],[-80.388149679182,25.5248655820397],[-80.3881274503703,25.5238329306692],[-80.3881274512686,25.523832899054],[-80.3881260957109,25.5237042147311],[-80.3881258414876,25.5234987717064],[-80.3881258423859,25.5234966980701],[-80.3881258702337,25.5232694701209],[-80.3881258720303,25.5232690226427],[-80.3881286271633,25.521990742293],[-80.3881102718871,25.5211389447834],[-80.3880887383715,25.5201397112205],[-80.3880869120965,25.5200548964456],[-80.3871383073261,25.5200631150253],[-80.3870984445854,25.520063460371],[-80.3870980753778,25.5189851751567],[-80.387098067293,25.5189613468969],[-80.3870979765631,25.5186970566191],[-80.3870979747665,25.5186901561115],[-80.3870979352406,25.5185748198078],[-80.3870979307491,25.5185746884775],[-80.3870978984097,25.5184319048155],[-80.3870978984097,25.5184318205046],[-80.3870978561889,25.5183663773956],[-80.3870978121714,25.5182996663433],[-80.3870190838199,25.5182997020133],[-80.3864730617391,25.5182999508929],[-80.3860819146032,25.5183030071662],[-80.3858372710119,25.5183058477979],[-80.3854915543748,25.5183098614872],[-80.3851356670121,25.5183139943467],[-80.3850686050812,25.5183147726019],[-80.3848174145682,25.5183176886267],[-80.3845370207236,25.5183209410848],[-80.3843382630771,25.518323248287],[-80.3841364817014,25.5183279778083],[-80.384123146211,25.5183282972171],[-80.3841231246514,25.5183232572045],[-80.3841224904408,25.5181748260227]]},"properties":{"OBJECTID":6,"GlobalID":"ccc40f07-11b6-4e9b-81fb-851b73a3e3c8","EditBy":null,"EditDate":null,"ModifyBy":null,"ModifyDate":null}},{"type":"Feature","id":7,"geometry":{"type":"LineString","coordinates":[[-80.4571408733141,25.6618571981552],[-80.4571489617449,25.6620410589585]]},"properties":{"OBJECTID":7,"GlobalID":"789eb6e5-3435-4756-b798-fa551262bb32","EditBy":null,"EditDate":null,"ModifyBy":null,"ModifyDate":null}},{"type":"Feature","id":8,"geometry":{"type":"LineString","coordinates":[[-80.3879223973303,25.8505772965547],[-80.3879139280138,25.8506009381233],[-80.3879262582894,25.8507062022231],[-80.3879282615325,25.8507730911884],[-80.3879323335956,25.85090902911],[-80.3879342685668,25.8509736834823],[-80.3879362008429,25.8510381866444],[-80.3880594452084,25.855153276447],[-80.3880868204683,25.85607440155],[-80.3881118646001,25.8569692002118],[-80.3881147383107,25.8570719082025],[-80.388289732823,25.8633227284474],[-80.3883150904669,25.8642301145445],[-80.388340451704,25.8651379851367],[-80.3883660024856,25.8660456862824],[-80.3883913529429,25.8669540723717],[-80.3884170483533,25.8678703712647],[-80.3884676217072,25.8696764817651],[-80.388516850283,25.8696765173301],[-80.3884958521633,25.86980453649],[-80.3884757793083,25.8699254983109],[-80.3884447541933,25.870113577284],[-80.3884319100814,25.870191423771],[-80.3884319010982,25.8701915336985],[-80.3884675525369,25.870906803184],[-80.388474747144,25.8710511410874],[-80.388553183543,25.872624710486],[-80.3886093516045,25.8727910571762],[-80.3886516622543,25.8729164202131],[-80.3886565751406,25.873032855763],[-80.3886477734475,25.8732933604413],[-80.3886823424163,25.8738635227459],[-80.3889259780977,25.878584074268]]},"properties":{"OBJECTID":8,"GlobalID":"eec56462-0592-4e96-8761-457ca0bdbc9b","EditBy":null,"EditDate":null,"ModifyBy":null,"ModifyDate":null}},{"type":"Feature","id":9,"geometry":{"type":"LineString","coordinates":[[-80.4143302489927,25.4777990324254],[-80.418041906287,25.4777698980185],[-80.4182459541122,25.4777683320622],[-80.4185385758244,25.4777659648811],[-80.4193045854368,25.4777599346109],[-80.4200643778092,25.4777539497539],[-80.4200643751143,25.4777535969879],[-80.4200319692887,25.4745301291841],[-80.420026046696,25.4739548321849],[-80.4200260332213,25.473948155371],[-80.4200199363555,25.4712090797931],[-80.4200182367429,25.4704515032932],[-80.4200176097189,25.4701719818147],[-80.4200174156828,25.4700719302257],[-80.42001688927,25.4697992949613],[-80.4200123779307,25.4674597389984],[-80.420010435773,25.4665143551066],[-80.4200085726671,25.4656206009682],[-80.4200037163747,25.4633156508853],[-80.4200033660317,25.4631258309395],[-80.4200033570486,25.4631217115917],[-80.4200030839607,25.4629912630716],[-80.4200029249589,25.4629144893172],[-80.4200057142279,25.4628090876377],[-80.4200062720817,25.4626910171436],[-80.4200156163573,25.4596058620997],[-80.4200198986262,25.4581915306019],[-80.4200104492478,25.4581917139078],[-80.4197793091319,25.4581961830034],[-80.4196090451479,25.45819947521],[-80.4194282753666,25.4582029709996],[-80.4193421673551,25.4582046345412],[-80.4191715907573,25.4582044917897],[-80.419040049552,25.4582043814817],[-80.4188822020818,25.4582042500855],[-80.4188010860083,25.4582041811429],[-80.418681637025,25.458204080568],[-80.4183856610035,25.4582038299418],[-80.4182245221061,25.458203693679],[-80.418139022254,25.4582036223033],[-80.417892293673,25.4582034130426],[-80.4174653792157,25.4582030504862],[-80.4169189070789,25.4582025849217],[-80.4163825984813,25.4582021258458],[-80.4161527672108,25.4582025865438],[-80.4147913290752,25.4582053012556],[-80.4145783484028,25.4582057246435],[-80.4139954531745,25.4582074352282],[-80.4122293249017,25.4582126026699],[-80.4120063792179,25.4582132539736],[-80.411747402108,25.4582830943071],[-80.4117213123372,25.4582835209391],[-80.4116913175899,25.458284011647],[-80.4116767379328,25.4582842492957],[-80.411656503381,25.4582845794083],[-80.4114083240208,25.4582886356569],[-80.4113669961279,25.4582893112928],[-80.4037872345427,25.4583715011923],[-80.4037852142316,25.4577256130961],[-80.4037825147942,25.4568629389978],[-80.4037785550204,25.4555969079205],[-80.4037785541221,25.4555968049101],[-80.4037785532238,25.4555965185898],[-80.4037783735607,25.4555391287975],[-80.4037783843405,25.4555212690528],[-80.4037783861371,25.4555204100914],[-80.4037783879338,25.4555146836819],[-80.4037784975282,25.4553264493128],[-80.4037804082448,25.4519568590387],[-80.4037756265126,25.4483347004204],[-80.4037754630192,25.4482300419694],[-80.4037774527875,25.4479519143543],[-80.4037778705042,25.4478934104429]]},"properties":{"OBJECTID":9,"GlobalID":"93537fcc-27af-4562-8b2d-64305a92908a","EditBy":null,"EditDate":null,"ModifyBy":null,"ModifyDate":null}},{"type":"Feature","id":10,"geometry":{"type":"LineString","coordinates":[[-80.3847940457944,25.9050474797193],[-80.3846409414289,25.9053337333848],[-80.3845070726887,25.9055840201333],[-80.3840707798198,25.9064949536568],[-80.3837799331786,25.9071639160086],[-80.3836291141272,25.9075820503985],[-80.3815918213011,25.9132306803791]]},"properties":{"OBJECTID":10,"GlobalID":"92eb2f98-ae81-47fe-b317-b1ead8c08d22","EditBy":null,"EditDate":null,"ModifyBy":null,"ModifyDate":null}},{"type":"Feature","id":11,"geometry":{"type":"LineString","coordinates":[[-80.3876244324388,25.8406275245127],[-80.3876309137835,25.8408439966116],[-80.387634057887,25.8409489443818],[-80.3877681098836,25.8454254100226]]},"properties":{"OBJECTID":11,"GlobalID":"59cdcb0f-e2ac-45b7-98be-84a27768c686","EditBy":null,"EditDate":null,"ModifyBy":null,"ModifyDate":null}},{"type":"Feature","id":12,"geometry":{"type":"LineString","coordinates":[[-80.4571568588346,25.66222491462],[-80.4572229829243,25.6640473767121],[-80.4572891384551,25.665866306642],[-80.457420584439,25.669482296155],[-80.4575105444265,25.6694797352047],[-80.4592864454713,25.6694339757176],[-80.4601038485994,25.669408795321],[-80.4611499205781,25.6693765498318],[-80.4624736393532,25.6693357729505],[-80.4635650241515,25.6693021332073],[-80.4644468894861,25.6692731077073]]},"properties":{"OBJECTID":12,"GlobalID":"18f0007e-8b7c-4966-a1e5-5d01d03006f0","EditBy":null,"EditDate":null,"ModifyBy":null,"ModifyDate":null}},{"type":"Feature","id":13,"geometry":{"type":"LineString","coordinates":[[-80.4037785900547,25.4478920322862],[-80.4061070205762,25.4479277799936],[-80.4063268446144,25.4479311535968],[-80.4090574984993,25.447912295811],[-80.4097902075642,25.4479072276994]]},"properties":{"OBJECTID":13,"GlobalID":"e9f4b28f-199b-4f8f-a437-388f8d4d7fb5","EditBy":null,"EditDate":null,"ModifyBy":null,"ModifyDate":null}},{"type":"Feature","id":14,"geometry":{"type":"MultiLineString","coordinates":[[[-80.3718276668637,25.503813337383],[-80.3707701180089,25.5038439094762],[-80.3698097246471,25.5038716665335],[-80.3697601834575,25.5038728964868],[-80.3697361220826,25.5038734948424],[-80.369711081544,25.5038741969779],[-80.3697109539833,25.5038741994102]],[[-80.3697109539833,25.5038741994102],[-80.3680474456553,25.5020635178034],[-80.3680410649219,25.5020570614647],[-80.3677039586368,25.5017159590504],[-80.3676662132251,25.5016777649443],[-80.367666153038,25.5016778144028],[-80.367195657713,25.5020585233231],[-80.3665987811056,25.5025166314281],[-80.3665984541189,25.5025162803564],[-80.366201078963,25.502089606662],[-80.3658275280269,25.5016553805186],[-80.3660101591174,25.5015121616075],[-80.3667498633634,25.5009323405658],[-80.3668534651668,25.500851130824],[-80.366195425865,25.5001705324904],[-80.3655927587173,25.4995628090885],[-80.3654228881954,25.4993772406864],[-80.3652888505718,25.4992313547331],[-80.3652931022981,25.4992027582244],[-80.3652955034948,25.4991899846987],[-80.3653149295628,25.4990939707803],[-80.3653427423023,25.4990294341602],[-80.3653717848355,25.4989620410108],[-80.3654280283554,25.4988511517191],[-80.3654786259638,25.4987553937473],[-80.3655227242611,25.4986562716268],[-80.3655800062335,25.4985285170795],[-80.3656181495988,25.4984727361629],[-80.3656189499977,25.4984715653439],[-80.3656685720357,25.4984296420709],[-80.3659010524379,25.4982368645569],[-80.3676843780585,25.4967580765649],[-80.368020918405,25.4964810300892],[-80.3685031367444,25.4960840698143],[-80.3690779920509,25.4956108459035],[-80.3716928153665,25.4934580024846],[-80.3717018838593,25.4934507615911],[-80.3717021928797,25.4934505150926],[-80.3716928000951,25.4927163016343],[-80.3716906926475,25.4925515081526],[-80.3716696505102,25.4909066089569],[-80.3716696343406,25.4909050812824],[-80.3716530119146,25.4894780164936],[-80.3716519797503,25.4893849788445],[-80.3716512063008,25.4893150722389],[-80.3716493629579,25.489122805551],[-80.3716463446185,25.4889747291215],[-80.3716463419236,25.488974576676],[-80.3716311559037,25.4879907409956],[-80.3736384018802,25.4879527509244],[-80.37364513116,25.4889212515367],[-80.3736451320583,25.4889213699253],[-80.3738414337108,25.4889202403682],[-80.3743173880978,25.4889175782461],[-80.3747342270509,25.4889152453416],[-80.3753178049988,25.4889119766804],[-80.375402968881,25.4889114998823],[-80.3754466279021,25.4889112558072],[-80.376318393478,25.4889063686274],[-80.3765115761799,25.4889052844794],[-80.3765119471841,25.4889052828577],[-80.3766274444785,25.4889046341529],[-80.377164607374,25.4889016192971],[-80.3771975036797,25.4889014352271],[-80.3773188256504,25.4889007524653],[-80.37774943937,25.4888983336071],[-80.3780572480004,25.4888966039977],[-80.3783221638727,25.4886986223521],[-80.379542630289,25.4877855174338],[-80.3796545019829,25.4877021296775],[-80.3828168430743,25.4853414468253],[-80.3852499785303,25.4835000408368],[-80.3857039628204,25.4834984749551],[-80.3857041523649,25.4834984741442],[-80.3856932459191,25.4825713258804],[-80.3856932198679,25.4825689790671],[-80.3856825918998,25.481665493869],[-80.3856631056447,25.4800007625295],[-80.3856630840851,25.4799990003545],[-80.3856396784803,25.4779995094889],[-80.3856396138017,25.4779479570943],[-80.3856395599027,25.477904914842],[-80.3856385681626,25.4768828303687],[-80.385637554863,25.4758387185858],[-80.385637554863,25.4758385499043],[-80.3860789663324,25.4758353773928],[-80.386079082215,25.4758353765819],[-80.3863180421655,25.4758336581381],[-80.3869741249366,25.4758289180231],[-80.387563171828,25.4758247577508],[-80.3875633155584,25.4758247569398],[-80.3875651705795,25.4758247423424],[-80.3876643266205,25.4758239735435],[-80.3877181303162,25.4758236045525],[-80.3877183288438,25.4758236029306],[-80.3877734341983,25.4758232258299],[-80.3883204255613,25.4758193129031],[-80.3883205827665,25.4758193120921],[-80.3890035664871,25.4758144203252],[-80.3896827934532,25.4758095107168],[-80.3900289475699,25.4758070072543],[-80.3903697243712,25.4758045435293],[-80.3910343635954,25.4757998204434],[-80.3910345405635,25.4757998188215],[-80.3917112854845,25.4757948905602],[-80.3917114337065,25.4757948897492],[-80.392376076524,25.475790165041],[-80.3930579005196,25.4757852473219],[-80.3937409138846,25.4757802501275],[-80.3937410692932,25.4757802493166],[-80.394416480216,25.475775414316],[-80.3950869593878,25.4757707844905],[-80.395257412018,25.4757694139518],[-80.3952578503959,25.4757694107079],[-80.3953289089315,25.4757688389743],[-80.395664070364,25.4757664255286],[-80.395664235654,25.4757664239067],[-80.3957830477318,25.4757655415717],[-80.3957831815808,25.4757655415717],[-80.3958874319678,25.4757662268411],[-80.3958876008511,25.4757662268411],[-80.3960463448399,25.4757655431937],[-80.3961998076331,25.4757648814424],[-80.396469021944,25.4757637209448],[-80.3971296681568,25.4757608476792],[-80.3971298235653,25.4757608468682],[-80.3978177579015,25.4757579135908],[-80.397817916005,25.4757579135908],[-80.3984914512454,25.4757549154358],[-80.3984916120439,25.4757549138138],[-80.3986712095237,25.475754132039],[-80.3990773953558,25.475752363314],[-80.3991380226543,25.4757521005598],[-80.3991429723715,25.4757520794746],[-80.3992448691725,25.4757516415509],[-80.3993895644086,25.4757510252139],[-80.3993896308839,25.4757510252139],[-80.3994017347841,25.4757509733118]],[[-80.3697109539833,25.5038741994102],[-80.3697109045759,25.5038742018426]],[[-80.3697110617811,25.5038743177841],[-80.3697109539833,25.5038741994102]],[[-80.3841224859492,25.5181738872513],[-80.384118581871,25.5172617530351],[-80.3841146274871,25.5167791607028],[-80.384112760788,25.5166015174972],[-80.3841011249101,25.5154946044985],[-80.3840919755689,25.5146240213847],[-80.3840919522127,25.5146217935607],[-80.3840463932548,25.5146142507384],[-80.384023386502,25.514610443656],[-80.3840231933642,25.5146104112277],[-80.3838294456221,25.5146118283445],[-80.3838293234512,25.5146118291552],[-80.3836684217091,25.5146131125051],[-80.3836179651362,25.5146134846199],[-80.3836178842878,25.5146134846199],[-80.383519113624,25.5146142126352],[-80.3833722031425,25.5146153581649],[-80.3833683215221,25.5146153881611],[-80.3833676603621,25.514615393836],[-80.3832127225351,25.5146165734154],[-80.3832078976837,25.5146166107079],[-80.383060317059,25.514617757859],[-80.3829672408157,25.5146185085741],[-80.3829268804083,25.5146188336678],[-80.3827666056903,25.5146200545932],[-80.3826243987876,25.5146211239163],[-80.3825459327441,25.5146217035721],[-80.3824712522013,25.5146222556639],[-80.382320547236,25.5146234709143],[-80.3823101654062,25.5146235536065],[-80.382307885482,25.5146235706313],[-80.382149069628,25.5146247583177],[-80.3821464204962,25.5146247785854],[-80.3820234914395,25.5146257238702],[-80.3818592794056,25.514626985331],[-80.3817037406057,25.5146281527496],[-80.3817033291773,25.5146281551818],[-80.3815608420002,25.5146292601759],[-80.3814842920632,25.5146298398317],[-80.3814068213532,25.5146304275945],[-80.3809753982514,25.5146337693303],[-80.3809722972671,25.514241149602],[-80.3809713136118,25.5141100706938],[-80.3809712803742,25.5141059003969],[-80.3809701251407,25.5139688869304],[-80.3809698143236,25.5139308880495],[-80.3809698143236,25.5139308199497],[-80.3809695385408,25.5138972053891],[-80.3809690786034,25.5138413400002],[-80.3809690543489,25.5138378823105],[-80.3809675874001,25.513647863257],[-80.3809675712304,25.5136461356254],[-80.3809663737761,25.5135131703446],[-80.3809653290354,25.5133819868699],[-80.3809653236455,25.51338130749],[-80.3809641154115,25.5132379996024],[-80.3809640408513,25.5132284153082],[-80.3809607341527,25.5128005514341],[-80.3813923333242,25.5127974034094],[-80.381393389743,25.5127973961129],[-80.3815463063606,25.5127962813732],[-80.3816852254294,25.5127952468948],[-80.3818408199248,25.5127940421652],[-80.3819924824942,25.512792946072],[-80.3820549432542,25.5127925131477],[-80.3821234847104,25.5127920372552],[-80.3822123469566,25.5127913538184],[-80.3822956890554,25.5127907117283],[-80.3824496324474,25.5127896213102],[-80.382605247604,25.5127884141484],[-80.382745566248,25.5127874420953],[-80.3827465508016,25.5127874347988],[-80.382905262451,25.5127862373656],[-80.3829064626003,25.5127862292584],[-80.3830411110782,25.5127852580161],[-80.3831415732697,25.5127845129645],[-80.383186398304,25.5127841805694],[-80.383353713119,25.5127828672032],[-80.3833538047471,25.5127828672032],[-80.3835212309531,25.5127816462592],[-80.3836530389582,25.5127806693417],[-80.3838149288471,25.51277948488],[-80.3839268759995,25.5127786611886],[-80.3840392202072,25.5127778342543],[-80.3850589347172,25.5127703050984],[-80.3860512290514,25.5127629721364],[-80.386281801432,25.5127612623279],[-80.3862827509512,25.5127612542207],[-80.3866481990835,25.512758543173],[-80.3871491374152,25.512754825211],[-80.3874504988368,25.5127525868129],[-80.3877193574148,25.5127500484483],[-80.387755830812,25.512749704703],[-80.3877576139678,25.5127496868672],[-80.3877576121712,25.5127490780164],[-80.3877572510485,25.5125948424753],[-80.3877490287687,25.5090620107754],[-80.3877449962313,25.5073218945964],[-80.387744750093,25.5072158143284],[-80.3877447491947,25.5072156424478],[-80.3860156908004,25.5072313808703],[-80.3859815404466,25.5054105268845],[-80.3859636271415,25.5044657681786],[-80.3859494274718,25.5044659457386],[-80.383913377914,25.5044914778832],[-80.383882506411,25.5044918646232],[-80.3832572053114,25.5044997250947],[-80.3818631206017,25.5045172402826],[-80.3818568207166,25.5045173197386],[-80.3801079760299,25.5045402306351],[-80.3798128596962,25.5045440939804],[-80.3797536948549,25.5045453677086],[-80.3796897069589,25.5045467444054],[-80.3795084341211,25.5045506434245],[-80.379507393872,25.5045506645047],[-80.3786269900963,25.5045696017851],[-80.3783814796309,25.5045748815538],[-80.3765285875764,25.5046147133148],[-80.3763966079932,25.5046175502165],[-80.3761755245169,25.5046223005471],[-80.3753759125229,25.503733100094],[-80.373925734312,25.5037704211464],[-80.3718291131513,25.503824645337],[-80.3718286900448,25.5038133073842]]]},"properties":{"OBJECTID":14,"GlobalID":"a386767e-a7b9-43e2-a191-50e0a2f9fe0c","EditBy":null,"EditDate":null,"ModifyBy":null,"ModifyDate":null}},{"type":"Feature","id":15,"geometry":{"type":"LineString","coordinates":[[-80.3584088110159,25.9438688548748],[-80.3570189726426,25.9450091384144],[-80.3565211110408,25.9454177287868],[-80.3555584341615,25.9462075364257],[-80.3545817947678,25.9470087969041],[-80.3536798457983,25.9477486517449],[-80.3536284540793,25.9477907238762],[-80.3535641365015,25.9478660974533],[-80.3535139485249,25.94793138774],[-80.3528605696828,25.9484634203602],[-80.3527887385961,25.948521392873],[-80.352399967504,25.9488355368376],[-80.3521309795686,25.9490527168535],[-80.3517819436565,25.9493348806481],[-80.35153798009,25.9495318798018],[-80.3511241765443,25.9498661985343],[-80.3508859433309,25.9500585797379],[-80.3503716488476,25.9504737809076],[-80.3502052476193,25.9506078463723],[-80.3501652618094,25.9506503116588],[-80.3500172535865,25.950760042993],[-80.3497771824201,25.9509402057097],[-80.3492314927159,25.9513903390887],[-80.3487796140769,25.951763341282],[-80.3477917744882,25.9525786022317],[-80.3470142960845,25.9532202742362],[-80.3468459580885,25.9533591425116],[-80.345860196303,25.9541725088181],[-80.3449086226007,25.9549578234019],[-80.3448094530849,25.955039568447],[-80.3437088192325,25.9559480067807],[-80.3426024738915,25.9568545198233]]},"properties":{"OBJECTID":15,"GlobalID":"ab1752bb-0a11-4d9f-ab61-d8e3509faa26","EditBy":null,"EditDate":null,"ModifyBy":null,"ModifyDate":null}},{"type":"Feature","id":16,"geometry":{"type":"LineString","coordinates":[[-80.4209988161475,25.532720103881],[-80.4168033127665,25.5327679243435],[-80.4168043242695,25.532847032535],[-80.4168266797437,25.5345986802844],[-80.4168279508598,25.534736887675],[-80.4168297699482,25.5348703400992],[-80.416831940278,25.5350092977644],[-80.4168335374825,25.5351493706112],[-80.4168354823351,25.5352883182263],[-80.4168372097954,25.5354236675739],[-80.4168389327641,25.5355587549561],[-80.4168401886089,25.5356570392838],[-80.4168408857015,25.5357117313559],[-80.4168424766179,25.5358364002335],[-80.4168449820193,25.5360326287276],[-80.4168489004705,25.5363396914019],[-80.4168500485174,25.5364295250009],[-80.4154512359745,25.5364437211497],[-80.4148136998207,25.5364501853656],[-80.4132507318376,25.5364660237061],[-80.4128805576686,25.5364697725454],[-80.4127809614531,25.5364700440829],[-80.4128086295638,25.5377407803603],[-80.4128088227016,25.5377496623804],[-80.4128168832847,25.5382057943249],[-80.4128434806036,25.5397110837338],[-80.412846846591,25.5399015137931],[-80.412933608576,25.539900990997],[-80.4144912369731,25.5398915847189],[-80.4145320887589,25.5425464318132],[-80.4145505841723,25.543748425909],[-80.4145591864395,25.5438542056042],[-80.4145461599695,25.5438542753081],[-80.4142039853896,25.5438561135445],[-80.4138626273783,25.5438579469179],[-80.4133970970418,25.5438604457199],[-80.4130613229583,25.5438622466728],[-80.4130603132519,25.5438622523463],[-80.4130277295599,25.5438624290375],[-80.4130225175347,25.5438624574053],[-80.4129170265742,25.5438630207097],[-80.4129186094057,25.5439522724004],[-80.412949589605,25.5456997467831],[-80.4128381077799,25.5457011975735],[-80.4127820313466,25.5457019270212],[-80.4127777805187,25.5457019821351],[-80.4127777203315,25.5457019829455],[-80.4127567231101,25.5457022568937],[-80.4126028156508,25.5457042596328],[-80.4124870389803,25.5457057655369],[-80.4123720016234,25.5457072625256],[-80.4122176378199,25.5457092701276],[-80.4121023022222,25.5457107711687],[-80.4119867806733,25.5457122730203],[-80.4119092264199,25.5457132820895],[-80.4114894912983,25.5457187399785],[-80.411419678726,25.5457196477355],[-80.4112547642095,25.5457217923113],[-80.4110766363735,25.5457180453823],[-80.4109303538144,25.5457172608209],[-80.4088340659286,25.5457445818718],[-80.4088379529388,25.5460908703235],[-80.4088464087806,25.5468446856531],[-80.4088486141446,25.5470406943203],[-80.4088550460821,25.5476120378183],[-80.4088607566723,25.5481095624248],[-80.4088481506139,25.5481671146768],[-80.408850683863,25.5484223088584],[-80.4088506955411,25.548422924012],[-80.408861419629,25.5488648279688],[-80.4088758914882,25.5494661672584],[-80.408875902268,25.5494669420696],[-80.4088835693889,25.5501424037091],[-80.4088843805677,25.550208004543],[-80.4088843895508,25.5502087517936],[-80.4088890823498,25.5506409941086],[-80.4088975884973,25.5511731671082],[-80.4088987895448,25.5513144254142],[-80.4088988425454,25.5513211295348],[-80.408898847037,25.5513217681768],[-80.4088990015472,25.5513361805758],[-80.4089002924263,25.5514606832721],[-80.4089026828432,25.5516871381249],[-80.408906873484,25.5520842856855],[-80.4089180754757,25.5531458115464],[-80.4089195208649,25.5533726441243],[-80.4089250508938,25.554240034923],[-80.4089319005479,25.554980348216],[-80.4089385265214,25.5558580433253],[-80.4089387555918,25.5558884206219],[-80.4089453788704,25.5567968022108],[-80.4089495416634,25.5573676477957],[-80.4089509771712,25.5576800134858],[-80.4089507481008,25.5577047295632],[-80.4089457381965,25.5582460491162],[-80.4089423425647,25.5586131241254],[-80.4089491293367,25.559448696982],[-80.4089494042212,25.5594826278013],[-80.4089519716063,25.5603527370173],[-80.4089572878361,25.5604568237242],[-80.4089600735118,25.5606146639569],[-80.4090014005065,25.5632322851494],[-80.4090108166473,25.5654729884745],[-80.4090100782321,25.5657476463484],[-80.4090096991431,25.5658885155159],[-80.4090093802411,25.5660069715805],[-80.4090094323434,25.5660084910057],[-80.4090120248813,25.5660855311029],[-80.4090144871635,25.5661581530729],[-80.4090322109241,25.5667647466229],[-80.40904369319,25.5677920583692],[-80.4090479988152,25.5683018771976],[-80.4090491908796,25.5684394128485],[-80.4090494019837,25.5684637571892],[-80.4090504440294,25.5685528949368],[-80.4090511069861,25.5686095354581],[-80.4090516019578,25.5686852927315],[-80.4090517950956,25.5687148985714],[-80.4090601907502,25.5697065096797],[-80.4090601979367,25.5697072997564],[-80.4090615256467,25.5698579919978],[-80.4090681803664,25.5706315975667],[-80.4090723970583,25.571121183446],[-80.4090761744741,25.571559590606],[-80.4090839592743,25.5724632888424],[-80.4090841173778,25.572481877499],[-80.4090841964296,25.5724911645334],[-80.4090920836378,25.5734057292893],[-80.4090920953159,25.5734067365047],[-80.4090931705992,25.5734883111959],[-80.4091042468267,25.5743269226371],[-80.4091042567082,25.5743276592032],[-80.4091164261853,25.5752349277859],[-80.4091345119669,25.5761599032742],[-80.4091427989254,25.5767861126384],[-80.4091467362413,25.5770911586176],[-80.4091501731956,25.5775492937315],[-80.4091534978605,25.5780110425563],[-80.4091564371481,25.578242743999],[-80.4091593414014,25.5784716552139],[-80.4091622609261,25.5787009541123],[-80.4091651768575,25.5789300159719],[-80.4091721738352,25.5798518336598],[-80.4091738806343,25.5801203110742],[-80.409177341843,25.5806648975644],[-80.4091780353425,25.5807740566708],[-80.4091818136565,25.5807741344558],[-80.4091895885753,25.5807741644354],[-80.4091969376927,25.5807741919842],[-80.4093674496117,25.5807716420956],[-80.4098534067394,25.5807643675796],[-80.4100055849417,25.5807621669129],[-80.4103749919495,25.5807568248671],[-80.4112395422571,25.5807453207914],[-80.4122343599589,25.5807295693294],[-80.4128427305103,25.5807199345221],[-80.413286314106,25.5807138599989],[-80.4132886335561,25.5807138275885],[-80.4132867192462,25.5822643710259],[-80.4132864272938,25.5825013024914],[-80.4132867911114,25.5825494328601],[-80.4133001724159,25.5843186662405],[-80.4132917228624,25.5861343560158],[-80.4132874891024,25.5870025984672],[-80.413283792535,25.5877606376211],[-80.4132817093419,25.5880973259539],[-80.4132692559971,25.5897525301155],[-80.4132623569357,25.5906694721472],[-80.4132555809435,25.5915701288742],[-80.4132509564165,25.592184469445],[-80.4132482461992,25.5925447296834],[-80.4132437734875,25.5931391097956],[-80.4132423685223,25.5932364905306],[-80.4132756843413,25.5964436716648],[-80.4132763212468,25.596481526106],[-80.4132823875699,25.5965465862974]]},"properties":{"OBJECTID":16,"GlobalID":"18b1e649-81b6-4e03-99f3-5bb05e8ca644","EditBy":null,"EditDate":null,"ModifyBy":null,"ModifyDate":null}},{"type":"Feature","id":17,"geometry":{"type":"LineString","coordinates":[[-80.4486779393455,25.6548517560028],[-80.4487963238252,25.6548480845601],[-80.4522489986197,25.6547409608159],[-80.4562730181046,25.6546160117393],[-80.4567917978761,25.6545998950933],[-80.4567919865223,25.654599889425],[-80.456881123653,25.6564541242902],[-80.4569671166802,25.658242924009],[-80.4571408733141,25.6618571981552]]},"properties":{"OBJECTID":17,"GlobalID":"cbde8c02-cf2d-4254-9d6d-0321aec5b94c","EditBy":null,"EditDate":null,"ModifyBy":null,"ModifyDate":null}},{"type":"Feature","id":18,"geometry":{"type":"LineString","coordinates":[[-80.3815918213011,25.9132306803791],[-80.3812569841604,25.9141575271844],[-80.3800545352537,25.9174858411384],[-80.379792082562,25.9182122680374],[-80.3796211762825,25.9186853092936],[-80.379096373307,25.9201377657151],[-80.3789591475625,25.9205175469702],[-80.3787459701591,25.9211075262],[-80.3779984784179,25.9231761996385],[-80.3776509337092,25.9241379989187],[-80.3775113085646,25.9245243946416],[-80.3770130139748,25.9259033022396],[-80.3767370308583,25.9266670032377],[-80.3763429956387,25.9277494431113],[-80.3763343592356,25.9277731669857],[-80.3759436801219,25.9286142574517],[-80.3755318932939,25.9293152635159],[-80.3751563471995,25.929849809527],[-80.3746885728715,25.930419020782],[-80.3743481571929,25.9307817607066],[-80.3732281224253,25.9316507100908],[-80.3732266878158,25.9316518225273],[-80.372508623985,25.9322416296906],[-80.3723872624884,25.9323413137968],[-80.371938474054,25.9327099355047],[-80.3700835158743,25.9342333496752],[-80.3700193222641,25.9342862308417],[-80.3700192989079,25.9342862494223],[-80.3685864698601,25.9354665469392],[-80.3685665452271,25.9354829598936],[-80.3679374622201,25.9360040904041],[-80.3669145227583,25.9368514854253],[-80.3647509555494,25.9386279223362],[-80.3647015553953,25.9386684822529],[-80.3626205316828,25.9403703357856],[-80.3603829298197,25.9422014422514],[-80.3602602513929,25.9423018312143],[-80.3602124448501,25.9423409511806]]},"properties":{"OBJECTID":18,"GlobalID":"b20ca2bf-e27b-43ea-ad3b-c20238ac0b51","EditBy":null,"EditDate":null,"ModifyBy":null,"ModifyDate":null}},{"type":"Feature","id":19,"geometry":{"type":"LineString","coordinates":[[-80.4476981387803,25.7279604438107],[-80.4477005031461,25.7280419137119],[-80.4477084927622,25.7282701929323],[-80.4477159784235,25.7284840871634],[-80.4477311788164,25.7289184124387],[-80.447769986935,25.7300272696841],[-80.4478296090187,25.7317138498339],[-80.4478959630772,25.7334108458555],[-80.4479671680382,25.7352280333769],[-80.4480338356087,25.7368783328856],[-80.4480403816321,25.7370403994215],[-80.4481136563116,25.7388542437274],[-80.4481869390758,25.7406682318956],[-80.4482614534303,25.7425139892076],[-80.4482617849087,25.742522245087],[-80.4483136401584,25.7438516300019],[-80.448331115984,25.7443007769644],[-80.4483360378534,25.7444289899194],[-80.4483474716103,25.7447212573928],[-80.4483586232963,25.7450063567411],[-80.4483812087391,25.7455838833944],[-80.4484032884305,25.7461477433409],[-80.4484263832181,25.7467386038168],[-80.4484380972495,25.7470401835635],[-80.448448968661,25.7473161366141],[-80.4484715550022,25.7478934966874],[-80.4484941467333,25.7484710975003],[-80.4485430429325,25.7497242937289],[-80.4486162286787,25.7515990403891],[-80.4486293144375,25.751933640838],[-80.4486331107179,25.7520305626267],[-80.4486388150199,25.7521764006826],[-80.4486614103443,25.7527540195064],[-80.448684166467,25.7533356785352],[-80.4487291406217,25.7544903729592],[-80.4487517476242,25.7550679368391],[-80.4487631625165,25.755359740428],[-80.4487631804828,25.7553601951279],[-80.4487743321687,25.7556452891694],[-80.4487969221032,25.7562226500198],[-80.4488276507741,25.7570118096782],[-80.4488651338776,25.757983098247],[-80.4489275937394,25.7596068653794],[-80.4489544875023,25.7603060340098],[-80.4489605996395,25.7604626326494],[-80.4489628139867,25.7605177492762],[-80.4489707847382,25.7607238000907],[-80.4489733197839,25.7607922422532],[-80.4489780844482,25.7609119457588],[-80.4489826703477,25.7610291532681],[-80.4489848873899,25.7610839322641]]},"properties":{"OBJECTID":19,"GlobalID":"e0013c48-d426-424a-b341-b1c169accbcc","EditBy":null,"EditDate":null,"ModifyBy":null,"ModifyDate":null}},{"type":"Feature","id":20,"geometry":{"type":"LineString","coordinates":[[-80.4097902075642,25.4479072276994],[-80.4097902066659,25.44790361886],[-80.4097902003777,25.4478536491165],[-80.4097901698349,25.4476176895713],[-80.4097901114445,25.4471715721721],[-80.4097901114445,25.4471701818398],[-80.409790053054,25.446731152368],[-80.4097899919685,25.4462706512906],[-80.4097899919685,25.4462629971047],[-80.4097899838837,25.4462029990107],[-80.4097899344763,25.445824478608],[-80.4097899326797,25.4458101525079],[-80.4097898733909,25.4453630452683],[-80.4097898715943,25.4453477635495],[-80.4097898374583,25.445088943389],[-80.4097897718813,25.4449139960318],[-80.4097897655931,25.4448996795575],[-80.4097896038963,25.4444678532033],[-80.4097895985064,25.4444535139629],[-80.4097886858181,25.4420290115835],[-80.4097886642585,25.4419717240242],[-80.4097882465419,25.4408647378476],[-80.4097882222874,25.4408012326572],[-80.4097882195925,25.4407930703092],[-80.4097881944396,25.4407242622286],[-80.409788192643,25.4407196253761],[-80.4115469484422,25.4407084737287],[-80.4118284687742,25.4407067555946],[-80.4119230658652,25.4407063183546],[-80.411974821402,25.4407062242547],[-80.4120308960386,25.4407061236651],[-80.4168881200175,25.440697313157],[-80.419997993208,25.4406915884762],[-80.4224480529241,25.4406902402517],[-80.4280288545929,25.4406869175517],[-80.4281365778669,25.4406866758123],[-80.4339876475705,25.440666593593],[-80.4360949568864,25.4406541399547],[-80.438324274486,25.4406515643746],[-80.4444537078416,25.4406403510693],[-80.4477272918062,25.4406253007563],[-80.4498394852624,25.4406133597962],[-80.4521678924277,25.4406001622758],[-80.452674220651,25.4405974528455],[-80.4546774161239,25.4405875715366],[-80.4551650800506,25.4405851622526],[-80.4557336112175,25.4405823514211],[-80.4601392979172,25.4405604926413],[-80.4605382226669,25.4405585068067],[-80.4607818287039,25.4405576769421],[-80.4616041519049,25.4405557770954],[-80.4616043881618,25.4405557762841],[-80.4687373879118,25.4405391003016],[-80.4692532724132,25.4405379808359],[-80.4724557906556,25.4405313427282],[-80.4736919632164,25.4405287598447],[-80.4745974802942,25.4405268591863],[-80.4748674330202,25.4405262929638],[-80.4749057785064,25.4405263456922],[-80.4750515032118,25.4405271049821],[-80.4750514987202,25.4405264024767],[-80.4750432072701,25.4391692071353],[-80.4750556731913,25.438436838027],[-80.4749604688392,25.4376191680613],[-80.4748947229402,25.4370154183531],[-80.4748623198096,25.4366049129661],[-80.4747314721036,25.4360674021987],[-80.4746256523598,25.4356633250914],[-80.4744928382416,25.4354115305643],[-80.4743350473653,25.435112384853],[-80.4740254654606,25.4346703552441],[-80.4737793144963,25.4343548107345],[-80.4737065788061,25.4342615706385],[-80.4734151797009,25.4338528828075],[-80.472978211299,25.4332107328778],[-80.4744084585887,25.4332112983235],[-80.474965055637,25.4332113104924],[-80.4752783799233,25.4332114922138],[-80.4757734908837,25.4332116998954],[-80.4763947971752,25.4332120381894],[-80.4765956389132,25.4332121225601],[-80.4768058401981,25.4332122101758],[-80.4771555094225,25.4332123302417],[-80.4775578962793,25.433210822116],[-80.4791532907491,25.4332048082721],[-80.4792282874989,25.4332044716006],[-80.4800159042889,25.4332016135441],[-80.4807726738303,25.4331987838814],[-80.4816462926307,25.4331955201965],[-80.4822227622097,25.4331933533303],[-80.4830231781959,25.4331903346447],[-80.4831393025143,25.4331905382701],[-80.4835791814578,25.4331913105863],[-80.4847142621081,25.4331952906109],[-80.4854757163638,25.4331930004337],[-80.489384582609,25.433175236348],[-80.4912953207779,25.4331665153386],[-80.4917601630048,25.4331587994757],[-80.4922461120477,25.4331507323381],[-80.4934701636403,25.4331334209276],[-80.4961489793434,25.4331366197136],[-80.4973819296473,25.4331380759198],[-80.4978722741468,25.4331266582895],[-80.4979151381589,25.4331256604434],[-80.4983712514562,25.4331230125006],[-80.499438952172,25.4331168120631],[-80.4997693192959,25.4331148893839],[-80.5012218079737,25.4331064953067],[-80.5014467676804,25.4331051924278],[-80.5018194400642,25.4331030920831],[-80.5031372434332,25.4330955279212],[-80.503521512169,25.4330934730067],[-80.5054657655828,25.4330824893949],[-80.5063844860986,25.4330773241196],[-80.5074789584065,25.4330710247064],[-80.5094946126141,25.4330596241062],[-80.5135998793265,25.4330592557953],[-80.5135998820215,25.4330599340065],[-80.5135998883097,25.4330611135748],[-80.5136003751965,25.4332557097365],[-80.5136001748722,25.4333925369266],[-80.5135995550347,25.4338148764521],[-80.5135988884848,25.4343026652782],[-80.5135981267134,25.4349111962687],[-80.5135977584041,25.435181425721],[-80.5135972400762,25.4355615209303],[-80.5135963678121,25.4361999396231],[-80.5135959267393,25.4368446955217],[-80.5135943421111,25.4375983852418],[-80.513594062735,25.4378095595802],[-80.5135944831466,25.4385063872476],[-80.5135953886484,25.4400917536546],[-80.5135954650052,25.4402248901908],[-80.5135969256659,25.4429960251391],[-80.5135969669884,25.4430741695301],[-80.513578072723,25.4435796582689],[-80.5135630178571,25.4439824020025],[-80.5135813434889,25.4458325992453],[-80.5135932003524,25.4470300631873],[-80.5135978742868,25.4475165801336],[-80.5135987393644,25.4476046453165],[-80.5135926101592,25.4476482921776],[-80.5135938327663,25.4477685894575],[-80.5136025994252,25.4485563246755],[-80.5135980647296,25.4494491761984],[-80.5136052260991,25.4509666597215],[-80.5136069167284,25.4513001995327],[-80.5136304373175,25.452234675662],[-80.5136529374204,25.4531405127391],[-80.5136961391991,25.4548807287233],[-80.5136986077695,25.4549735148564],[-80.5116674459452,25.4549821645313],[-80.5096368509578,25.4549910461829],[-80.509637723222,25.455149862981],[-80.5096395557852,25.455492431793],[-80.5096421941372,25.4559164320127],[-80.5096440302936,25.456258141309],[-80.509646051503,25.4566007110222],[-80.5096466048652,25.4567446501619],[-80.5096468941227,25.4568134393543],[-80.5096474142473,25.4568723404239],[-80.5096486808718,25.4571202381869],[-80.509650946423,25.4574960854006],[-80.5096523064723,25.4577214562532],[-80.5096533862473,25.4579241096789],[-80.5096563102635,25.4584617637781],[-80.5096572211552,25.4586291662],[-80.5096773497058,25.462192357491],[-80.5096780144591,25.4623107618202],[-80.5096793745085,25.4628130017989],[-80.5096800976523,25.4633443435251],[-80.5096805387251,25.4636675097548],[-80.5096805917256,25.4637087590023],[-80.5096811693424,25.4641337140754],[-80.5096980864158,25.4650723177116],[-80.5097039263635,25.4658771896179],[-80.5097048695945,25.4660062278626],[-80.5097175160771,25.4677569754825],[-80.5097310536884,25.4696224427702],[-80.5097574255302,25.473239593517],[-80.5097613592528,25.4737795675209],[-80.5097625531139,25.4739434330232],[-80.509769582431,25.4751506538819],[-80.5097658966434,25.4760599158997],[-80.5097635062264,25.4766494230778],[-80.5097622099574,25.4769934771793],[-80.5097628567444,25.4772657263379],[-80.5097701079454,25.4803182463609],[-80.5097710933973,25.4806215914807],[-80.5097916360712,25.4819664076715],[-80.5097986393371,25.4824249159394],[-80.5098038190231,25.4827640304043],[-80.5098108276789,25.4832228316156],[-80.5098172488366,25.4836430914631],[-80.5098267826567,25.484247112475],[-80.5098376154407,25.4846554345841],[-80.5098475355364,25.4850267495621],[-80.5098611405214,25.4855470597394],[-80.5098642415057,25.4857106416066],[-80.509885745377,25.4868450751789],[-80.5099057337904,25.4878995575065],[-80.5099096854793,25.4890340579938],[-80.5099410007501,25.4915600099078],[-80.5099516592609,25.4920678540257],[-80.5099733149475,25.4930996807124],[-80.5099847334331,25.4936438184192],[-80.5099980725167,25.4942793407667],[-80.5100010225841,25.4944199022463],[-80.5100084435667,25.4947782435958],[-80.510008444465,25.4947783076522],[-80.510017536314,25.4952173815213],[-80.5100296195529,25.4959529094636],[-80.5100470396829,25.4970133671228],[-80.5100721305271,25.4985407231042],[-80.5100777315229,25.4988895607787],[-80.5099612056575,25.4988898632122],[-80.509947459637,25.498889898888],[-80.5076443903526,25.4988934145759],[-80.5060510323635,25.4988958267464],[-80.5050035428433,25.498897364049],[-80.5039560506282,25.4988989021624],[-80.5029636934119,25.4989031946095],[-80.5029000253161,25.4989034994754],[-80.502653769249,25.4989045592087],[-80.5022809585246,25.4989062084034],[-80.5019338153628,25.4989076970571],[-80.5014221933675,25.498909827875],[-80.5009106647969,25.4989120430175],[-80.4998994303833,25.4989194489878],[-80.4994039106894,25.4989245368421],[-80.4988824054293,25.4989274882029],[-80.4987630552607,25.4989282803676],[-80.4984941652416,25.4989301914547],[-80.498359816801,25.4989311165928],[-80.4979347861108,25.4989336990333],[-80.4969047113307,25.4989398012145],[-80.4967620265243,25.4989410312182],[-80.4959434169587,25.4989476774547],[-80.4953315429776,25.4989526217939],[-80.4951399700567,25.4989532534174],[-80.4947367378853,25.4989546163944],[-80.4945542720848,25.4989552058556],[-80.4940435870323,25.4989568526172],[-80.493910678591,25.4989585431627],[-80.4937829803784,25.4989598753288],[-80.4936698213987,25.4989610550619],[-80.4932463043698,25.498963389393],[-80.4929015624048,25.4989651934523],[-80.4918829887553,25.4989706315759],[-80.4917935758418,25.49897113428],[-80.4911566352711,25.4989745932087],[-80.4908881629686,25.4989760340235],[-80.4900460723398,25.4989794240329],[-80.4899959849745,25.4989794256545],[-80.4896800798285,25.4989783107865],[-80.4887985118362,25.4989849894535],[-80.4884299806858,25.4989877835151],[-80.4882984403788,25.498988780815],[-80.4878063917752,25.4989925040682],[-80.4872746789585,25.4989965305653],[-80.4867218826821,25.4990007135491],[-80.4858560405972,25.4990072632955],[-80.4857270371325,25.4990082451899],[-80.4846216431074,25.4990174430505],[-80.4841400284358,25.4990214492764],[-80.4837373208805,25.4990247971223],[-80.4836320994146,25.4990256719892],[-80.4832399183177,25.4990289306455],[-80.482742584027,25.4990330625471],[-80.4826163446784,25.4990341109278],[-80.4824294474886,25.4990356620125],[-80.4822372861712,25.4990372585026],[-80.4817029089514,25.4990416547288],[-80.4813556103811,25.4990420885135],[-80.481052879927,25.4990424663522],[-80.4808265673575,25.4990427460825],[-80.480676519959,25.4990429325694],[-80.4801870656899,25.4990435414897],[-80.4796711838835,25.4990441812209],[-80.4778289018308,25.4990464466313],[-80.4776721080845,25.4990468163618],[-80.4776825644744,25.5008691922126],[-80.4776889910219,25.5017792472258],[-80.4777160437867,25.5036468662113],[-80.4777322089703,25.5045711722569],[-80.4777492473163,25.5063914308969],[-80.4777566700954,25.506774692554],[-80.4777471308854,25.5071272803936],[-80.4777674669468,25.5081898454535],[-80.4777683886183,25.508254430661],[-80.4777753793079,25.5091453180361],[-80.4777827859174,25.5100578292999],[-80.4777895699944,25.510922442053],[-80.4777973619812,25.5118921057269],[-80.477798848693,25.5122288686198],[-80.4777991891545,25.5123273431209],[-80.4777996050744,25.5124476875831],[-80.4778004315245,25.5126866168821],[-80.477800854631,25.5128090818269],[-80.4778069802429,25.5130893489136],[-80.4778094353386,25.5133981257884],[-80.4778119730793,25.5137275466894],[-80.4776799000713,25.5137283411886],[-80.4772076997439,25.5137319666992],[-80.4757593397231,25.5137432810155],[-80.4747331124273,25.5137504939321],[-80.4740240613938,25.5137540197243],[-80.4737093078879,25.513754518313],[-80.4734644864302,25.5137549058339],[-80.4726906551866,25.5137561283896],[-80.4716723052176,25.5137578041339],[-80.4709700256847,25.5137753187821],[-80.4706419330952,25.5137835313061],[-80.4702708363563,25.5137928115386],[-80.470053091918,25.5137982570979],[-80.4700507176707,25.5137983162799],[-80.47004519393,25.5137984541011],[-80.4700435464198,25.5137984954475],[-80.4700422600323,25.5137985270653],[-80.4700416159402,25.5137985359831],[-80.4696174718873,25.5138028416798],[-80.4681168712394,25.5138180441684],[-80.4675596974727,25.5138236794333],[-80.467324118781,25.513825746751],[-80.4665311839645,25.5138326580776],[-80.4660170439915,25.5138370643013],[-80.4655026776429,25.5138415564605],[-80.4644814207256,25.513855191026],[-80.4632520466149,25.5138657002932],[-80.4632291521516,25.5138661648315],[-80.462411870296,25.5138827236339],[-80.4615243015576,25.5138809554701],[-80.4615242692183,25.5138809554701],[-80.4615122237086,25.513880930338],[-80.4613880091627,25.5138806725314],[-80.4612703244706,25.513881201116],[-80.4593878562837,25.5138893293186],[-80.4583915536667,25.513893434766],[-80.4573872093313,25.5138946743452],[-80.4554159390853,25.5139103835173],[-80.4552381678805,25.5139118849564],[-80.4543237943123,25.5139196037472],[-80.4535020136938,25.5139249528261],[-80.4533868335047,25.5139256954384],[-80.4532626018908,25.5139264777756],[-80.4528423547295,25.5139291093472],[-80.4513208772345,25.513938627107],[-80.4492598383421,25.5139514955387],[-80.448872898915,25.5139582657941],[-80.4484149530545,25.5139667936724],[-80.4482253510374,25.5139701670444],[-80.4471963263878,25.5139894822524],[-80.4467566908878,25.513997665576],[-80.4465908645813,25.5140007511446],[-80.4462964633065,25.5140062299336],[-80.4452604246112,25.5140255046002],[-80.4451175206158,25.514028162923],[-80.4451283722644,25.5149556043153],[-80.4451346559798,25.5154440102261],[-80.4451404141808,25.5158815136176],[-80.4451466026748,25.5163487720065],[-80.4451526088108,25.5168052877096],[-80.4451649804089,25.5177471078675],[-80.4451769109342,25.5186540143722],[-80.4451891468866,25.5195865523998],[-80.4452121545377,25.5213404366279],[-80.4452132576689,25.5214361376775],[-80.4451107131826,25.5214375449857],[-80.4435236910112,25.521459316917],[-80.4431216293445,25.5214529102609],[-80.4378503251387,25.5215287921876],[-80.4370659135377,25.5215400676679],[-80.4350232883121,25.5215630766486],[-80.4342589639391,25.5215716712715],[-80.4339958779351,25.5215746293716],[-80.4329962237038,25.5215858643146],[-80.4319013004416,25.5215989889057],[-80.4309538338367,25.5216101881773],[-80.4304422298077,25.52161705528],[-80.4298422827587,25.521625105946],[-80.4289296097014,25.5216404047231],[-80.4289200345588,25.5216378065577],[-80.4289211323,25.5218021385861],[-80.4289211340967,25.5218021726337],[-80.4289235236153,25.5221595235318],[-80.4289312805678,25.5233194595933],[-80.4289391210636,25.5244917734661],[-80.4280343289263,25.5253309272097]]},"properties":{"OBJECTID":20,"GlobalID":"c770c1d6-9ddd-4ca4-94d6-d39dff1604fe","EditBy":null,"EditDate":null,"ModifyBy":null,"ModifyDate":null}},{"type":"Feature","id":21,"geometry":{"type":"LineString","coordinates":[[-80.4261766659193,25.5272397923123],[-80.424884775353,25.5285757210661],[-80.4246949146211,25.5287782161194],[-80.4246761461199,25.5287982333657],[-80.4246220028611,25.5288559805167],[-80.4245333346509,25.528950549634],[-80.4244842992128,25.5290028477894],[-80.4244247894186,25.5290663177476],[-80.424415658942,25.5290760564141]]},"properties":{"OBJECTID":21,"GlobalID":"7ce7fb44-f5f1-4262-bf4b-9bd0968ed661","EditBy":null,"EditDate":null,"ModifyBy":null,"ModifyDate":null}},{"type":"Feature","id":22,"geometry":{"type":"LineString","coordinates":[[-80.465594796282,25.6728611335188],[-80.465562910581,25.6746818599298],[-80.4655328206123,25.6764932504299]]},"properties":{"OBJECTID":22,"GlobalID":"21fec8f8-089a-4465-8045-3d95fca58eae","EditBy":null,"EditDate":null,"ModifyBy":null,"ModifyDate":null}},{"type":"Feature","id":23,"geometry":{"type":"LineString","coordinates":[[-80.4637198451974,25.727444661776],[-80.4584061306288,25.7276159206482],[-80.4556792658378,25.7277037305504],[-80.4556761055646,25.7277038325175],[-80.4523074744531,25.7278122809671],[-80.4477642350222,25.7279583203097],[-80.4476981387803,25.7279604438107]]},"properties":{"OBJECTID":23,"GlobalID":"0bca3ef4-ed5b-4e80-a1c4-9058cebf8b82","EditBy":null,"EditDate":null,"ModifyBy":null,"ModifyDate":null}},{"type":"Feature","id":24,"geometry":{"type":"LineString","coordinates":[[-80.4261766659193,25.5272397923123],[-80.4261826163598,25.5272397558343],[-80.42626115876,25.527239226498],[-80.4263198501891,25.5272389873644],[-80.4273591812099,25.5272347551058],[-80.4289578733952,25.527228228786],[-80.4290112997984,25.52722797344],[-80.4289873659843,25.5258049386621],[-80.4289851435522,25.5256728607133],[-80.4289795461497,25.5253400452329],[-80.4289786271732,25.525319306755],[-80.4280343289263,25.5253309272097],[-80.4280297061958,25.525335213848]]},"properties":{"OBJECTID":24,"GlobalID":"e775edab-a92b-44de-9c33-6a106c8ab1fe","EditBy":null,"EditDate":null,"ModifyBy":null,"ModifyDate":null}},{"type":"Feature","id":25,"geometry":{"type":"LineString","coordinates":[[-80.4132823875699,25.5965465862974],[-80.4133852868908,25.5965380375591],[-80.4133876305954,25.5965379824687],[-80.4134743602411,25.5965359206283],[-80.4154317245665,25.5964893837872],[-80.4156618576709,25.5964839103885],[-80.4159202886051,25.5964777645619],[-80.4160805076276,25.5964683935125],[-80.4164345139182,25.5964476884084],[-80.4164362548532,25.5964475855188],[-80.4164934955031,25.5964464747977],[-80.4164935601818,25.5964464731774],[-80.4168689472744,25.5964391882722],[-80.4171187867212,25.5964343395001],[-80.4173957256452,25.5964289641275],[-80.4173989452072,25.5964289001254],[-80.4174691332753,25.5964250729572],[-80.4175160064685,25.5964225209716],[-80.4175571097826,25.5964202833257],[-80.4178029095056,25.596406901198],[-80.4179000658969,25.5964009530451],[-80.4179039214661,25.596400810458],[-80.4184903237172,25.5963790432296],[-80.4196013690438,25.5963377553202],[-80.42154550388,25.5962654870642],[-80.422633383452,25.5962250368164],[-80.4241720591931,25.5961678122781],[-80.4241762803767,25.5961676551079],[-80.4255567520165,25.5961163009345],[-80.4255603758203,25.5961160838126],[-80.4255649814828,25.5961158075493],[-80.4255651350947,25.5961157970173],[-80.4256022786351,25.5961135455931],[-80.425634916226,25.5961115688118],[-80.4256769843307,25.5961093125265],[-80.425877513455,25.5961011720757],[-80.4270655929104,25.5960529337364],[-80.4275713758564,25.5960345966487],[-80.4281633889848,25.5960132174189],[-80.4284157293414,25.5960041031529],[-80.4289538175017,25.5959846674847],[-80.4293726354433,25.5959695377991],[-80.4296820646345,25.5959583608692],[-80.4297157748138,25.5959567834929],[-80.4297184967092,25.5959566506271],[-80.4298832342575,25.5959485936122],[-80.4301196088566,25.5959370318555],[-80.4305894349367,25.5959140509267],[-80.4308656201741,25.5959005407375],[-80.4311511335175,25.5958865744278],[-80.4315115214399,25.5958689437724],[-80.4318011535588,25.5958547741094],[-80.4322181721749,25.595834371088],[-80.4324750292608,25.5958218047241],[-80.4327883813948,25.5958064724784],[-80.4330599061726,25.5957931858807],[-80.4333478844931,25.595779093984],[-80.4335870690223,25.5957673904332],[-80.4338783252953,25.5957531373119],[-80.433901118249,25.5957520225335],[-80.4343202074819,25.5957437086845],[-80.4343628514068,25.5957428855631],[-80.4348119928791,25.5957342395483],[-80.4358097929877,25.5957150201486],[-80.4368435275043,25.5956951007685],[-80.4375682505463,25.5956811320044],[-80.4377095043365,25.5956784090593],[-80.4378510428926,25.5956713031526],[-80.4378739930515,25.5956701511061],[-80.4379843124566,25.5956646104267],[-80.438112916171,25.5956581526467],[-80.4382876519685,25.5956493770002],[-80.4384186649645,25.5956427976954],[-80.4385523953642,25.595636084714],[-80.4386859694571,25.595629375783],[-80.4387710039819,25.5956251070522],[-80.4389295332733,25.595617146424],[-80.4398333004329,25.5955717596525],[-80.4403534483386,25.5955456352323],[-80.440864534938,25.5955199653062],[-80.4419244903794,25.5954667199398],[-80.4419758183181,25.5954641403883],[-80.4419759009631,25.595464138768],[-80.4427381601093,25.5954476398448],[-80.4429657851174,25.5954427124468],[-80.4439840820858,25.5954206639183],[-80.445357420204,25.595390919665],[-80.4460221312934,25.5953765182393],[-80.4460221941755,25.5953785995436],[-80.4460610364301,25.5966743603727],[-80.4461004949289,25.5979906580772],[-80.4461012593952,25.5980161905587],[-80.4461572073694,25.5998825178854],[-80.4462569895363,25.6032111764293],[-80.4463394279299,25.6059610440852],[-80.4463698305123,25.6069752378821],[-80.4464774208356,25.6105638916137],[-80.4464853188236,25.6108365626183],[-80.4465476978369,25.6130972842243],[-80.4465951055277,25.6150762632789],[-80.4465983619206,25.6152121745228],[-80.4466373407191,25.6168208681266],[-80.4466383450356,25.6168624049275],[-80.446640816301,25.6169643283461],[-80.4466440942534,25.6170996323621],[-80.4466523344995,25.6174397397737],[-80.4466606205597,25.6177816930388],[-80.446665069017,25.6179313729697],[-80.446743177531,25.6198374979458],[-80.4467785522885,25.6207005660989],[-80.4468169265208,25.6216366650444],[-80.4469631866221,25.6252043168956],[-80.4469694811173,25.6253578534573],[-80.4469695278297,25.6253589841587],[-80.4469715436492,25.6253589104525],[-80.4469860379663,25.62535837912],[-80.4471257879768,25.6253534075973],[-80.4474606089478,25.6253424180852],[-80.4477922426962,25.6253315346766],[-80.4482918317583,25.6253151378806],[-80.4487925311381,25.6252987013943],[-80.4490080118219,25.6252916264068],[-80.4491267610176,25.6252877280763],[-80.4493195610372,25.6252813966302],[-80.4497933432978,25.6252655902872],[-80.4501262454674,25.6252541228913],[-80.451067035793,25.6252217083365],[-80.451320052581,25.6252129899375],[-80.4517480360335,25.6251982405822],[-80.4520182331013,25.6251892395057],[-80.4521313408771,25.6251854715753],[-80.4524599886254,25.6251747590539],[-80.4531044013827,25.6251536709512],[-80.4533446090931,25.6251458256836],[-80.4534646024554,25.6251419062894],[-80.4544606867818,25.6251094058485],[-80.4544699573955,25.6251091037335],[-80.4547941980092,25.6250985264685],[-80.4547992555242,25.6250983612367],[-80.4556697212379,25.625069892765],[-80.4559754296072,25.6323284489357],[-80.456210139628,25.6379257255099],[-80.4562101423229,25.6379258000182],[-80.4562212616695,25.6381898563351],[-80.4562918018772,25.6398655212198],[-80.455742148806,25.6398800711579],[-80.4557419853126,25.6398800760171],[-80.4557105200231,25.6398809077429],[-80.4549245848794,25.6399017073645],[-80.4536902646447,25.6399343641318],[-80.4538207170919,25.6436156147326],[-80.4538207179903,25.6436157013848],[-80.4527678304935,25.643645156672],[-80.4527670381794,25.6436451785375],[-80.4518309478393,25.6436713596591],[-80.4518309505343,25.6436714365933],[-80.4519545308696,25.6473498736497],[-80.4517010029402,25.647356855012],[-80.4488912631743,25.647434194971],[-80.4481594524247,25.6474567141188],[-80.4482217730476,25.6483473070477],[-80.4482395641818,25.6486016251343],[-80.4482887208924,25.6493006695153],[-80.4484838520401,25.6520847282656],[-80.4486779393455,25.6548517560028]]},"properties":{"OBJECTID":25,"GlobalID":"9bab5ac5-c2b5-484f-a90c-30dc75a0e76d","EditBy":null,"EditDate":null,"ModifyBy":null,"ModifyDate":null}},{"type":"Feature","id":26,"geometry":{"type":"LineString","coordinates":[[-80.3994019476848,25.4757508232824],[-80.3995853665978,25.4757500431295],[-80.399780892106,25.4757492102635],[-80.39986330894,25.4757494624752],[-80.4005105091696,25.475739126665],[-80.4006634051259,25.475736732682],[-80.4011980230942,25.4757378039732],[-80.4018789236217,25.4757337856175],[-80.4025499660372,25.4757298094321],[-80.4032244436104,25.4757257643142],[-80.4038009365457,25.4757223476978],[-80.4038964112907,25.4757217897505],[-80.4038997835663,25.4759600630302],[-80.4039008660362,25.4760478576207],[-80.4039118416524,25.4768083175235],[-80.4039240991644,25.4776715435952],[-80.4039241198257,25.4776729692573],[-80.4039253280597,25.4777580929293],[-80.4039261356452,25.4778149652758],[-80.4039272046404,25.4778903322441],[-80.4048218422217,25.4778822737807],[-80.405671191238,25.4778746199836],[-80.4069110136538,25.4778633858174],[-80.4112477555537,25.4778240998821],[-80.4119822881986,25.4778175035676],[-80.4120870596085,25.4778165474507],[-80.4143301627544,25.4777990316144],[-80.4143302489927,25.4777990324254]]},"properties":{"OBJECTID":26,"GlobalID":"5b223c5c-e189-4fbc-acbf-394c35221674","EditBy":null,"EditDate":null,"ModifyBy":null,"ModifyDate":null}},{"type":"Feature","id":27,"geometry":{"type":"LineString","coordinates":[[-80.3889265548161,25.8785959900482],[-80.3891224917526,25.8826520475523],[-80.3891332535698,25.8828691046178],[-80.3891365836245,25.8829437575696],[-80.3891442929663,25.8831033105276],[-80.3891470624723,25.8831606152812],[-80.3891560725746,25.8833470697116],[-80.3891930148923,25.8841509323018],[-80.3892431130374,25.8852408283535],[-80.3892516434394,25.8854264349444],[-80.3891838044657,25.8861972530253],[-80.3893355047644,25.8897439433113],[-80.3893351643029,25.88982154896],[-80.389338757564,25.8899075900861],[-80.3893420489912,25.8899864288718],[-80.3893420444997,25.8899866026251],[-80.3893382320496,25.8900677995529],[-80.3893344330743,25.8901487790315],[-80.3893307374052,25.8902275546201],[-80.3893268180556,25.8903110990662],[-80.3893228942144,25.8903947339663],[-80.389319197647,25.8904735101989],[-80.389315501978,25.8905522855709],[-80.3893114748305,25.8906381249349],[-80.3893078806711,25.8907146971799],[-80.389303854422,25.8908005356177],[-80.3893003986031,25.8908741871069],[-80.38929657178,25.8909557325443],[-80.3892827907252,25.8910367437397],[-80.3892694480483,25.891115180122],[-80.3892553696512,25.8911979376131],[-80.3892415104429,25.891279406053],[-80.3892288432991,25.8913538694299],[-80.3892140300801,25.8914409487138],[-80.3892009658809,25.8915177467185],[-80.3891879609706,25.8915941963631],[-80.389175411506,25.8916679637298],[-80.3891635968634,25.8917374099095],[-80.3891509297196,25.8918118738056],[-80.3891431341396,25.8918833095464],[-80.3891260248267,25.8919571809827],[-80.3891087259692,25.8920308770061],[-80.3890902862514,25.8921045689429],[-80.3890714656479,25.8921782592173],[-80.3890515095738,25.8922512568702],[-80.3890200856069,25.8923318946243],[-80.3889989482483,25.8924065270463],[-80.388978606797,25.8924783511416],[-80.3889598544654,25.8925445610618],[-80.3889399891212,25.8926147049561],[-80.3889128025074,25.8927056825683],[-80.3888892549689,25.8927686396135],[-80.3888638335447,25.8928366030249],[-80.3888368077294,25.8929088584027],[-80.388810049612,25.8929803977289],[-80.3887843613881,25.8930490770253],[-80.3887570678748,25.8931220482793],[-80.388728972166,25.8931971650815],[-80.3887037178284,25.8932646805408],[-80.388699855971,25.8932765608979],[-80.3886560217784,25.893411401776],[-80.3886290049463,25.8934945132349],[-80.3885861346459,25.8936460239711],[-80.3885711920695,25.8936737234321],[-80.3885112708468,25.893865203173],[-80.3884567664653,25.8940384787286],[-80.3883892715464,25.894261049714],[-80.3883676670638,25.8943269523546],[-80.3883407472497,25.8944174971084],[-80.3882167662658,25.8947620955361],[-80.388105635682,25.8950710653655],[-80.3879402621263,25.8955308420642],[-80.3877770023066,25.8959847371344],[-80.3876174130031,25.8964284232098],[-80.387462369175,25.8968594744654],[-80.3871332282515,25.8977745279803],[-80.3868152399123,25.8986585637318],[-80.3867659664206,25.8987519052116],[-80.3866306927153,25.8991497660978],[-80.3864867269112,25.8995647232011],[-80.3864858196128,25.8995673389867],[-80.3863352943105,25.8999746186065],[-80.3863349906799,25.8999754396225],[-80.3861819168572,25.9003896075566],[-80.3861816608373,25.9003904673578],[-80.3847940457944,25.9050474797193]]},"properties":{"OBJECTID":27,"GlobalID":"27cea02f-afba-4e27-bf8a-162994c2cd86","EditBy":null,"EditDate":null,"ModifyBy":null,"ModifyDate":null}},{"type":"Feature","id":28,"geometry":{"type":"LineString","coordinates":[[-80.4571489617449,25.6620410589585],[-80.4571494073093,25.6620514175675],[-80.4571568588346,25.66222491462]]},"properties":{"OBJECTID":28,"GlobalID":"2eb43dfe-fa2a-41e8-a446-30ef959274fd","EditBy":null,"EditDate":null,"ModifyBy":null,"ModifyDate":null}},{"type":"Feature","id":29,"geometry":{"type":"LineString","coordinates":[[-80.3602124448501,25.9423409511806],[-80.3591942305267,25.9432035137321],[-80.3585508625101,25.9437485205734],[-80.3584088110159,25.9438688548748]]},"properties":{"OBJECTID":29,"GlobalID":"51f2c6b8-814d-464a-ab86-c2201234faac","EditBy":null,"EditDate":null,"ModifyBy":null,"ModifyDate":null}},{"type":"Feature","id":30,"geometry":{"type":"LineString","coordinates":[[-80.4249369072839,25.782691567563],[-80.4248651345877,25.7826910717145],[-80.4242499404333,25.7826867870337],[-80.4232501613362,25.7826804202743],[-80.4212416783795,25.7826672855461],[-80.4197365053069,25.7826571631168],[-80.418739767007,25.7826506046493],[-80.4172590128388,25.7826407895963],[-80.4172590146354,25.7826408996051],[-80.4172622916895,25.782918838232],[-80.4172549353857,25.7834497619201],[-80.4172236587424,25.7838257851533],[-80.4170345013914,25.7848163999174],[-80.4170076022385,25.7853633113249],[-80.4173495225952,25.7965036808009],[-80.4173736953612,25.7970968981503],[-80.4172689742569,25.7970960642879],[-80.4168522251354,25.7970930191938],[-80.4167295197592,25.7970918391692],[-80.4163435424277,25.7970887423125],[-80.4116193275013,25.797050962109],[-80.4105577038884,25.7970425369408],[-80.4092350918377,25.7970320121522],[-80.4083506923557,25.7970248050211],[-80.4063600319743,25.7970086106095],[-80.4052178734979,25.7969996443574],[-80.4050331071119,25.7969981529476],[-80.4011997110286,25.7969671625143],[-80.4011995178908,25.7969671633231],[-80.3991920051147,25.7969795200284],[-80.398690505336,25.7969826047561],[-80.3981888151144,25.7969858609475],[-80.3971842974042,25.7969921897344],[-80.3931685091822,25.7970167591738],[-80.386727292151,25.7970559442567],[-80.3866036273741,25.7970566260669],[-80.3865924190943,25.7970567514293],[-80.3864051167643,25.7970578521928],[-80.386405115866,25.7970580244651],[-80.3864051014929,25.7970975751075],[-80.3864062630146,25.7971305963776],[-80.3864274758317,25.797912921507],[-80.3864274605603,25.7979184916047],[-80.3864215801885,25.8000025608405],[-80.386427858514,25.8002353270717],[-80.38643925544,25.800289791148],[-80.3864570025568,25.8003193103725],[-80.3864938577379,25.8003545928683],[-80.3865966375828,25.8041344345731],[-80.3868761124509,25.8115834985854],[-80.3868858708498,25.811717668442],[-80.3868804773649,25.8118056878612],[-80.386909884614,25.8128098794972],[-80.3869182829636,25.813097601976],[-80.3869701337218,25.8148719198988],[-80.3869794887771,25.8151952421469],[-80.3870035654234,25.8160171354727],[-80.3870585908278,25.8179128694362],[-80.3870637507508,25.8180918974634],[-80.3870819631949,25.8187242663248],[-80.3870826432196,25.8187406057499],[-80.3871517991234,25.8187402095153],[-80.3871589883406,25.8189306049746],[-80.3872082106283,25.8205518598304],[-80.3872122799965,25.8206846319205],[-80.3872670368047,25.8224847523426],[-80.387269641919,25.8225705077213],[-80.3873201667638,25.8242329362228],[-80.3873243825575,25.8243736147556],[-80.3873719258939,25.8259535972821],[-80.387375254152,25.8261034642263],[-80.3873215627458,25.8261035046559],[-80.3873191651423,25.8261817253851],[-80.3873191328029,25.8261830878615],[-80.3873191220231,25.8261847988408],[-80.3873186153733,25.8262616804899],[-80.3873970966881,25.8298128861557],[-80.3873970993831,25.8298129920779],[-80.3874052578825,25.8301821926988],[-80.3874736223705,25.833366123875],[-80.3875514838478,25.8369901287742],[-80.3876212101818,25.8402782648632],[-80.3876264527498,25.8405152450391],[-80.3876244324388,25.8406275245127]]},"properties":{"OBJECTID":30,"GlobalID":"8188e30f-bde8-491b-af5c-b8640f6f5230","EditBy":null,"EditDate":null,"ModifyBy":null,"ModifyDate":null}},{"type":"Feature","id":31,"geometry":{"type":"LineString","coordinates":[[-80.4644468894861,25.6692731077073],[-80.4649227531433,25.6692572335111],[-80.4650325066097,25.6692535722277],[-80.4651439228578,25.6692498550777],[-80.4655773321346,25.669235395355],[-80.4656550211353,25.6692303932735],[-80.4656322695041,25.6705825783056],[-80.4656322326732,25.6705847416935],[-80.4656245682472,25.671040304808],[-80.4655947971804,25.6728610590323]]},"properties":{"OBJECTID":31,"GlobalID":"8450db37-811e-4ba4-98ae-5533eabedef7","EditBy":null,"EditDate":null,"ModifyBy":null,"ModifyDate":null}},{"type":"Feature","id":32,"geometry":{"type":"LineString","coordinates":[[-80.3100365299209,25.5521896519874],[-80.3108564824679,25.5521920987466],[-80.3109433037418,25.5521922486806],[-80.3138614845355,25.5521919382769],[-80.3138682174086,25.5521919374664],[-80.3151646525519,25.5521918329179],[-80.3195772194483,25.5521466549875],[-80.322089274597,25.5521184317396],[-80.3233419168702,25.5521080011957],[-80.3243226346154,25.5520979005059],[-80.3243321334012,25.5520978024409],[-80.3252608449796,25.5520882309767],[-80.3310279922727,25.5520286698696],[-80.3314493955657,25.5520242869309],[-80.3315042143576,25.5520236912467],[-80.3315204945255,25.552023516999],[-80.3315209643444,25.5520235113258],[-80.3316914484157,25.5520216626786],[-80.3320924886978,25.5520173113474],[-80.3398096116731,25.5519333806276],[-80.344522057771,25.5518819264315],[-80.3462126242536,25.5518634310221],[-80.3467886042508,25.5518571256762],[-80.3478048970779,25.5518460929408]]},"properties":{"OBJECTID":32,"GlobalID":"bfb71f14-9872-43ed-9350-4d59848607fd","EditBy":null,"EditDate":null,"ModifyBy":null,"ModifyDate":null}}]}